[{"OBJECT_NAME":"GHGSAT-C3","OBJECT_ID":"2022-057F","EPOCH":"2026-03-09T22:30:13.234752","MEAN_MOTION":15.32943835,"ECCENTRICITY":0.00073198,"INCLINATION":97.6431,"RA_OF_ASC_NODE":211.0668,"ARG_OF_PERICENTER":112.4588,"MEAN_ANOMALY":247.7429,"EPHEMERIS_TYPE":0,"CLASSIFICATION_TYPE":"U","NORAD_CAT_ID":52737,"ELEMENT_SET_NO":999,"REV_AT_EPOCH":21032,"BSTAR":0.00031249517,"MEAN_MOTION_DOT":9.871e-5,"MEAN_MOTION_DDOT":0},{"OBJECT_NAME":"STARLINK-30712","OBJECT_ID":"2023-148A","EPOCH":"2026-03-09T22:00:01.999584","MEAN_MOTION":15.30193659,"ECCENTRICITY":0.00010393,"INCLINATION":53.1615,"RA_OF_ASC_NODE":23.1448,"ARG_OF_PERICENTER":101.5333,"MEAN_ANOMALY":70.6949,"EPHEMERIS_TYPE":0,"CLASSIFICATION_TYPE":"U","NORAD_CAT_ID":57935,"ELEMENT_SET_NO":999,"REV_AT_EPOCH":586,"BSTAR":0.00078884182,"MEAN_MOTION_DOT":0.00023072,"MEAN_MOTION_DDOT":0}]
